0 BREEZE-M DEB
1 38923U 12044BG  13281.39717413  .00347597  14547-4  68203-2 0  4699
2 38923 050.1185 290.8195 1869158 139.4675 236.1586 11.77286812 38638
0 BREEZE-M DEB
1 38923U 12044BG  13282.07605693  .00452076  21420-4  88280-2 0  4707
2 38923 050.1189 288.8543 1866563 141.0863 234.0424 11.77886713 38714
0 BREEZE-M DEB
1 38923U 12044BG  13282.41536029  .00474703  23156-4  92468-2 0  4714
2 38923 050.1187 287.8705 1864690 141.8885 232.9831 11.78314136 38751
0 BREEZE-M DEB
1 38923U 12044BG  13283.00886786  .00442232  20696-4  86218-2 0  4723
2 38923 050.1183 286.1493 1862303 143.3087 231.1072 11.78809976 38820
0 BREEZE-M DEB
1 38923U 12044BG  13283.43263626  .00491496  00000-0  92579-2 0  4739
2 38923 050.1237 284.9205 1862212 144.4130 229.7268 11.79225472 38876
0 BREEZE-M DEB
1 38923U 12044BG  13284.02571276  .00421055  19182-4  82122-2 0  4730
2 38923 050.1172 283.1986 1858544 145.7348 227.8801 11.79601503 38942
0 BREEZE-M DEB
1 38923U 12044BG  13286.14196956  .00407627  18248-4  79150-2 0  4764
2 38923 050.1169 277.0409 1851223 150.7993 221.0517 11.81211203 39194
0 BREEZE-M DEB
1 38923U 12044BG  13286.39572262  .00388740  17003-4  75750-2 0  4774
2 38923 050.1168 276.3028 1850178 151.4030 220.2286 11.81386780 39221
0 BREEZE-M DEB
1 38923U 12044BG  13287.15675376  .00392476  17236-4  76473-2 0  4782
2 38923 050.1163 274.0842 1847711 153.2245 217.7400 11.81908982 39315
0 BREEZE-M DEB
1 38923U 12044BG  13287.41035521  .00416714  18855-4  81312-2 0  4792
2 38923 050.1150 273.3550 1846669 153.8148 216.9289 11.82107232 39347
0 BREEZE-M DEB
1 38923U 12044BG  13288.00191260  .00519836  26874-4  10097-1 0  4803
2 38923 050.1148 271.6287 1844333 155.2396 214.9668 11.82654521 39414
0 BREEZE-M DEB
1 38923U 12044BG  13288.33980720  .00517339  26662-4  10031-1 0  4816
2 38923 050.1154 270.6375 1842597 156.0529 213.8409 11.83045641 39458
0 BREEZE-M DEB
1 38923U 12044BG  13289.01530986  .00478983  23481-4  92635-2 0  4826
2 38923 050.1156 268.6565 1840031 157.6805 211.5865 11.83626220 39531
0 BREEZE-M DEB
1 38923U 12044BG  13289.35293790  .00481714  23699-4  93142-2 0  4834
2 38923 050.1157 267.6689 1838674 158.4918 210.4588 11.83916269 39571
0 BREEZE-M DEB
1 38923U 12044BG  13289.94359076  .00463771  22285-4  89568-2 0  4840
2 38923 050.1158 265.9399 1836547 159.9122 208.4811 11.84383776 39647
0 BREEZE-M DEB
1 38923U 12044BG  13290.36534021  .00487633  24173-4  94176-2 0  4856
2 38923 050.1155 264.7050 1834892 160.9240 207.0679 11.84732216 39698
0 BREEZE-M DEB
1 38923U 12044BG  13291.12415918  .00444468  20822-4  85642-2 0  4869
2 38923 050.1159 262.4802 1831902 162.7529 204.5063 11.85400135 39783
0 BREEZE-M DEB
1 38923U 12044BG  13292.13527598  .00423186  19279-4  81307-2 0  4872
2 38923 050.1165 259.5120 1828225 165.1921 201.0788 11.86219784 39906
0 BREEZE-M DEB
1 38923U 12044BG  13292.30372585  .00435358  20147-4  83671-2 0  4882
2 38923 050.1166 259.0171 1827509 165.5966 200.5087 11.86366096 39922
0 BREEZE-M DEB
1 38923U 12044BG  13292.89315155  .00417307  18862-4  80089-2 0  4892
2 38923 050.1168 257.2850 1825322 167.0197 198.5022 11.86850176 39991
0 BREEZE-M DEB
1 38923U 12044BG  13293.31402114  .00447982  21069-4  85905-2 0  4901
2 38923 050.1165 256.0478 1823792 168.0379 197.0644 11.87182442 40040
0 BREEZE-M DEB
1 38923U 12044BG  13294.15539979  .00461062  22056-4  88179-2 0  4913
2 38923 050.1162 253.5720 1820757 170.0775 194.1801 11.87860151 40144
0 BREEZE-M DEB
1 38923U 12044BG  13294.91221499  .00448243  21078-4  85599-2 0  4925
2 38923 050.1165 251.3423 1817922 171.9100 191.5842 11.88482255 40237
0 BREEZE-M DEB
1 38923U 12044BG  13295.24845740  .00496213  24866-4  94690-2 0  4934
2 38923 050.1160 250.3518 1816574 172.7192 190.4370 11.88773980 40274
